TEVEL2-4                
1 63213U 25052D   26068.69417973  .00020990  00000+0  70363-3 0  9998
2 63213  97.4009 325.1237 0004733  95.3468 264.8313 15.30925813 54879
STARLINK-35708          
1 66277U 25247N   26068.61467776  .00015719  00000+0  54182-3 0  9999
2 66277  53.1579 191.6852 0000826 112.4942 247.6146 15.30194602 21072
